{
  "type": "FeatureCollection",
  "features": [
    {
      "type": "Feature",
      "properties": {
        "norad_id": 67068,
        "name": "CZ-12 R/B",
        "group": "last-30-days",
        "lat": -29.78772247192779,
        "lon": 155.48396622972606,
        "alt_km": 723.1523331819362,
        "timestamp": "2025-12-27T20:30:58.025602+00:00",
        "meta_object_name": "CZ-12 R/B",
        "meta_object_id": "2025-295K",
        "meta_epoch": "2025-12-27T06:11:06.855072",
        "meta_mean_motion": 14.41130775,
        "meta_eccentricity": 0.0056891,
        "meta_inclination": 49.9942,
        "meta_ra_of_asc_node": 309.338,
        "meta_arg_of_pericenter": 187.9515,
        "meta_mean_anomaly": 172.0508,
        "meta_ephemeris_type": 0,
        "meta_classification_type": "U",
        "meta_norad_cat_id": 67068,
        "meta_element_set_no": 999,
        "meta_rev_at_epoch": 220,
        "meta_bstar": 4.444e-05,
        "meta_mean_motion_dot": -2.1e-07,
        "meta_mean_motion_ddot": 0,
        "tle_line1": "1 67068U 25295K   25361.25771823 -.00000021  00000+0  44440-4 0  9995",
        "tle_line2": "2 67068  49.9942 309.3380 0056891 187.9515 172.0508 14.41130775  2207"
      },
      "geometry": {
        "type": "Point",
        "coordinates": [
          155.48396622972606,
          -29.78772247192779
        ]
      }
    },
    {
      "type": "Feature",
      "properties": {
        "norad_id": 67069,
        "name": "XIWANG-5 02",
        "group": "last-30-days",
        "lat": 29.927981047301554,
        "lon": 56.23112666669605,
        "alt_km": 508.8991455846726,
        "timestamp": "2025-12-27T20:30:58.025615+00:00",
        "meta_object_name": "XIWANG-5 02",
        "meta_object_id": "2025-296A",
        "meta_epoch": "2025-12-23T12:00:44.103744",
        "meta_mean_motion": 15.16891516,
        "meta_eccentricity": 0.00145566,
        "meta_inclination": 41.3523,
        "meta_ra_of_asc_node": 40.1941,
        "meta_arg_of_pericenter": 102.8792,
        "meta_mean_anomaly": 257.3656,
        "meta_ephemeris_type": 0,
        "meta_classification_type": "U",
        "meta_norad_cat_id": 67069,
        "meta_element_set_no": 999,
        "meta_rev_at_epoch": 159,
        "meta_bstar": 0.00060249038,
        "meta_mean_motion_dot": 0.00011945,
        "meta_mean_motion_ddot": 0,
        "tle_line1": "1 67069U 25296A   25357.50051046  .00011945  00000+0  60249-3 0  9998",
        "tle_line2": "2 67069  41.3523  40.1941 0014556 102.8792 257.3656 15.16891516  1599"
      },
      "geometry": {
        "type": "Point",
        "coordinates": [
          56.23112666669605,
          29.927981047301554
        ]
      }
    },
    {
      "type": "Feature",
      "properties": {
        "norad_id": 67070,
        "name": "DEAR-5",
        "group": "last-30-days",
        "lat": 31.951846045224734,
        "lon": 60.502286072867065,
        "alt_km": 506.125843335165,
        "timestamp": "2025-12-27T20:30:58.025627+00:00",
        "meta_object_name": "DEAR-5",
        "meta_object_id": "2025-296B",
        "meta_epoch": "2025-12-27T10:48:07.205760",
        "meta_mean_motion": 15.16997952,
        "meta_eccentricity": 0.0018549,
        "meta_inclination": 41.357,
        "meta_ra_of_asc_node": 17.6572,
        "meta_arg_of_pericenter": 124.6075,
        "meta_mean_anomaly": 235.6499,
        "meta_ephemeris_type": 0,
        "meta_classification_type": "U",
        "meta_norad_cat_id": 67070,
        "meta_element_set_no": 999,
        "meta_rev_at_epoch": 218,
        "meta_bstar": 0.0003313,
        "meta_mean_motion_dot": 6.5e-05,
        "meta_mean_motion_ddot": 0,
        "tle_line1": "1 67070U 25296B   25361.45008340  .00006500  00000+0  33130-3 0  9998",
        "tle_line2": "2 67070  41.3570  17.6572 0018549 124.6075 235.6499 15.16997952  2185"
      },
      "geometry": {
        "type": "Point",
        "coordinates": [
          60.502286072867065,
          31.951846045224734
        ]
      }
    },
    {
      "type": "Feature",
      "properties": {
        "norad_id": 67073,
        "name": "RAISE-4",
        "group": "last-30-days",
        "lat": 76.30890453821357,
        "lon": 1.6612241217040744,
        "alt_km": 545.104427848969,
        "timestamp": "2025-12-27T20:30:58.025639+00:00",
        "meta_object_name": "RAISE-4",
        "meta_object_id": "2025-297B",
        "meta_epoch": "2025-12-27T05:43:37.580160",
        "meta_mean_motion": 15.07254766,
        "meta_eccentricity": 0.00116909,
        "meta_inclination": 97.4853,
        "meta_ra_of_asc_node": 148.3968,
        "meta_arg_of_pericenter": 266.3793,
        "meta_mean_anomaly": 93.6098,
        "meta_ephemeris_type": 0,
        "meta_classification_type": "U",
        "meta_norad_cat_id": 67073,
        "meta_element_set_no": 999,
        "meta_rev_at_epoch": 197,
        "meta_bstar": 0.00042612821,
        "meta_mean_motion_dot": 6.374e-05,
        "meta_mean_motion_ddot": 0,
        "tle_line1": "1 67073U 25297B   25361.23862940  .00006374  00000+0  42613-3 0  9997",
        "tle_line2": "2 67073  97.4853 148.3968 0011690 266.3793  93.6098 15.07254766  1978"
      },
      "geometry": {
        "type": "Point",
        "coordinates": [
          1.6612241217040744,
          76.30890453821357
        ]
      }
    },
    {
      "type": "Feature",
      "properties": {
        "norad_id": 67074,
        "name": "ELECTRON KICK STAGE R/B",
        "group": "last-30-days",
        "lat": 44.40653743873261,
        "lon": 142.67092491755767,
        "alt_km": 500.7687373478193,
        "timestamp": "2025-12-27T20:30:58.025650+00:00",
        "meta_object_name": "ELECTRON KICK STAGE R/B",
        "meta_object_id": "2025-297C",
        "meta_epoch": "2025-12-27T09:33:09.309888",
        "meta_mean_motion": 15.61478762,
        "meta_eccentricity": 0.0184639,
        "meta_inclination": 97.4808,
        "meta_ra_of_asc_node": 149.5834,
        "meta_arg_of_pericenter": 216.326,
        "meta_mean_anomaly": 142.535,
        "meta_ephemeris_type": 0,
        "meta_classification_type": "U",
        "meta_norad_cat_id": 67074,
        "meta_element_set_no": 999,
        "meta_rev_at_epoch": 206,
        "meta_bstar": 0.0019005,
        "meta_mean_motion_dot": 0.00389363,
        "meta_mean_motion_ddot": 4.4016e-05,
        "tle_line1": "1 67074U 25297C   25361.39802442  .00389363  44016-4  19005-2 0  9996",
        "tle_line2": "2 67074  97.4808 149.5834 0184639 216.3260 142.5350 15.61478762  2062"
      },
      "geometry": {
        "type": "Point",
        "coordinates": [
          142.67092491755767,
          44.40653743873261
        ]
      }
    },
    {
      "type": "Feature",
      "properties": {
        "norad_id": 67075,
        "name": "STARLINK-36230",
        "group": "last-30-days",
        "lat": -49.251011735716844,
        "lon": -177.98577549474243,
        "alt_km": 360.5635260120289,
        "timestamp": "2025-12-27T20:30:58.025660+00:00",
        "meta_object_name": "STARLINK-36230",
        "meta_object_id": "2025-298A",
        "meta_epoch": "2025-12-27T12:00:02.000160",
        "meta_mean_motion": 15.7230808,
        "meta_eccentricity": 0.0003734,
        "meta_inclination": 69.9995,
        "meta_ra_of_asc_node": 208.0216,
        "meta_arg_of_pericenter": 274.2634,
        "meta_mean_anomaly": 185.1927,
        "meta_ephemeris_type": 0,
        "meta_classification_type": "U",
        "meta_norad_cat_id": 67075,
        "meta_element_set_no": 999,
        "meta_rev_at_epoch": 335,
        "meta_bstar": -0.01508,
        "meta_mean_motion_dot": -0.01762652,
        "meta_mean_motion_ddot": 0,
        "tle_line1": "1 67075U 25298A   25361.50002315 -.01762652  00000+0 -15080-1 0  9999",
        "tle_line2": "2 67075  69.9995 208.0216 0003734 274.2634 185.1927 15.72308080  3356"
      },
      "geometry": {
        "type": "Point",
        "coordinates": [
          -177.98577549474243,
          -49.251011735716844
        ]
      }
    },
    {
      "type": "Feature",
      "properties": {
        "norad_id": 67076,
        "name": "STARLINK-36240",
        "group": "last-30-days",
        "lat": -47.61741838379314,
        "lon": -176.50484829096905,
        "alt_km": 360.67306141642894,
        "timestamp": "2025-12-27T20:30:58.025670+00:00",
        "meta_object_name": "STARLINK-36240",
        "meta_object_id": "2025-298B",
        "meta_epoch": "2025-12-27T12:00:02.000160",
        "meta_mean_motion": 15.72276925,
        "meta_eccentricity": 0.0003411,
        "meta_inclination": 69.9995,
        "meta_ra_of_asc_node": 208.0193,
        "meta_arg_of_pericenter": 272.0879,
        "meta_mean_anomaly": 189.2717,
        "meta_ephemeris_type": 0,
        "meta_classification_type": "U",
        "meta_norad_cat_id": 67076,
        "meta_element_set_no": 999,
        "meta_rev_at_epoch": 335,
        "meta_bstar": -0.014299,
        "meta_mean_motion_dot": -0.0167967,
        "meta_mean_motion_ddot": 0,
        "tle_line1": "1 67076U 25298B   25361.50002315 -.01679670  00000+0 -14299-1 0  9998",
        "tle_line2": "2 67076  69.9995 208.0193 0003411 272.0879 189.2717 15.72276925  3354"
      },
      "geometry": {
        "type": "Point",
        "coordinates": [
          -176.50484829096905,
          -47.61741838379314
        ]
      }
    }
  ]
}